start=new Date('2022-08-17T00:00:00.000Z').valueOf();
sats=[{"COUNTRY_CODE":"US","ELEMENT_SET_NO":"999","OBJECT_ID":"2021-040AX","EPHEMERIS_TYPE":"0","REF_FRAME":"TEME","SEMIMAJOR_AXIS":"6925.374","EPOCH":"2022-08-16T09:36:18.016992","MEAN_ANOMALY":"293.0444","BSTAR":"0.00010614000000","LAUNCH_DATE":"2021-05-09","ECCENTRICITY":"0.00014390","INCLINATION":"53.0535","RA_OF_ASC_NODE":"273.3255","OBJECT_NAME":"STARLINK-2658","MEAN_MOTION_DDOT":"0.0000000000000","REV_AT_EPOCH":"7035","CENTER_NAME":"EARTH","OBJECT_TYPE":"PAYLOAD","TIME_SYSTEM":"UTC","GP_ID":"210337917","RCS_SIZE":"LARGE","TLE_LINE1":"1 48473U 21040AX  22228.40020853  .00001299  00000-0  10614-3 0  9997","CLASSIFICATION_TYPE":"U","ARG_OF_PERICENTER":"67.0697","PERIOD":"95.593","MEAN_ELEMENT_THEORY":"SGP4","NORAD_CAT_ID":"48473","MEAN_MOTION_DOT":"0.00001299","MEAN_MOTION":"15.06391774","DECAY_DATE":null,"PERIAPSIS":"546.242","FILE":"3537973","APOAPSIS":"548.235","SITE":"AFETR","TLE_LINE2":"2 48473  53.0535 273.3255 0001439  67.0697 293.0444 15.06391774 70352"},{"BSTAR":"0.00004716600000","ECCENTRICITY":"0.00013330","LAUNCH_DATE":"2021-05-09","ELEMENT_SET_NO":"999","COUNTRY_CODE":"US","OBJECT_ID":"2021-040AY","SEMIMAJOR_AXIS":"6925.355","REF_FRAME":"TEME","EPOCH":"2022-08-16T11:59:35.979936","MEAN_ANOMALY":"278.5577","EPHEMERIS_TYPE":"0","MEAN_MOTION_DDOT":"0.0000000000000","OBJECT_NAME":"STARLINK-2697","TIME_SYSTEM":"UTC","OBJECT_TYPE":"PAYLOAD","CENTER_NAME":"EARTH","REV_AT_EPOCH":"7036","INCLINATION":"53.0540","RA_OF_ASC_NODE":"272.8974","PERIOD":"95.592","ARG_OF_PERICENTER":"81.5563","CLASSIFICATION_TYPE":"U","NORAD_CAT_ID":"48474","MEAN_ELEMENT_THEORY":"SGP4","RCS_SIZE":"LARGE","GP_ID":"210336665","TLE_LINE1":"1 48474U 21040AY  22228.49972199  .00000421  00000-0  47166-4 0  9995","SITE":"AFETR","APOAPSIS":"548.143","FILE":"3537973","TLE_LINE2":"2 48474  53.0540 272.8974 0001333  81.5563 278.5577 15.06397918 70369","MEAN_MOTION":"15.06397918","MEAN_MOTION_DOT":"0.00000421","PERIAPSIS":"546.297","DECAY_DATE":null},{"MEAN_MOTION_DDOT":"0.0000000000000","OBJECT_NAME":"STARLINK-2619","TIME_SYSTEM":"UTC","CENTER_NAME":"EARTH","REV_AT_EPOCH":"7037","OBJECT_TYPE":"PAYLOAD","RA_OF_ASC_NODE":"272.7346","INCLINATION":"53.0535","BSTAR":"0.00012198000000","ECCENTRICITY":"0.00014540","LAUNCH_DATE":"2021-05-09","COUNTRY_CODE":"US","ELEMENT_SET_NO":"999","OBJECT_ID":"2021-040AZ","REF_FRAME":"TEME","SEMIMAJOR_AXIS":"6925.354","EPOCH":"2022-08-16T12:52:41.165184","MEAN_ANOMALY":"304.0192","EPHEMERIS_TYPE":"0","SITE":"AFETR","APOAPSIS":"548.226","FILE":"3537973","TLE_LINE2":"2 48475  53.0535 272.7346 0001454  56.0936 304.0192 15.06398280 70373","MEAN_MOTION_DOT":"0.00001536","MEAN_MOTION":"15.06398280","PERIAPSIS":"546.212","DECAY_DATE":null,"PERIOD":"95.592","CLASSIFICATION_TYPE":"U","ARG_OF_PERICENTER":"56.0936","MEAN_ELEMENT_THEORY":"SGP4","NORAD_CAT_ID":"48475","GP_ID":"210336416","RCS_SIZE":"LARGE","TLE_LINE1":"1 48475U 21040AZ  22228.53658756  .00001536  00000-0  12198-3 0  9995"},{"MEAN_ELEMENT_THEORY":"SGP4","NORAD_CAT_ID":"48476","PERIOD":"95.592","ARG_OF_PERICENTER":"67.0631","CLASSIFICATION_TYPE":"U","TLE_LINE1":"1 48476U 21040BA  22228.49234663  .00000745  00000-0  68896-4 0  9996","RCS_SIZE":"LARGE","GP_ID":"210343924","TLE_LINE2":"2 48476  53.0549 272.9184 0001493  67.0631 293.0516 15.06404754 71640","SITE":"AFETR","APOAPSIS":"548.233","FILE":"3538112","PERIAPSIS":"546.165","DECAY_DATE":null,"MEAN_MOTION":"15.06404754","MEAN_MOTION_DOT":"0.00000745","ECCENTRICITY":"0.00014930","LAUNCH_DATE":"2021-05-09","BSTAR":"0.00006889600000","SEMIMAJOR_AXIS":"6925.334","EPOCH":"2022-08-16T11:48:58.748832","MEAN_ANOMALY":"293.0516","REF_FRAME":"TEME","EPHEMERIS_TYPE":"0","COUNTRY_CODE":"US","OBJECT_ID":"2021-040BA","ELEMENT_SET_NO":"999","TIME_SYSTEM":"UTC","OBJECT_TYPE":"PAYLOAD","REV_AT_EPOCH":"7164","CENTER_NAME":"EARTH","MEAN_MOTION_DDOT":"0.0000000000000","OBJECT_NAME":"STARLINK-2723","INCLINATION":"53.0549","RA_OF_ASC_NODE":"272.9184"},{"LAUNCH_DATE":"2021-05-09","ECCENTRICITY":"0.00013220","BSTAR":"0.00008472500000","EPHEMERIS_TYPE":"0","MEAN_ANOMALY":"304.5304","SEMIMAJOR_AXIS":"6925.363","EPOCH":"2022-08-16T09:52:13.432512","REF_FRAME":"TEME","ELEMENT_SET_NO":"999","COUNTRY_CODE":"US","OBJECT_ID":"2021-040BC","REV_AT_EPOCH":"7035","CENTER_NAME":"EARTH","OBJECT_TYPE":"PAYLOAD","TIME_SYSTEM":"UTC","OBJECT_NAME":"STARLINK-2728","MEAN_MOTION_DDOT":"0.0000000000000","RA_OF_ASC_NODE":"273.2969","INCLINATION":"53.0532","NORAD_CAT_ID":"48478","MEAN_ELEMENT_THEORY":"SGP4","CLASSIFICATION_TYPE":"U","ARG_OF_PERICENTER":"55.5810","PERIOD":"95.592","TLE_LINE1":"1 48478U 02032DG  22228.41126658  .00000981  00000-0  84725-4 0  9995","GP_ID":"210337418","RCS_SIZE":"LARGE","TLE_LINE2":"2 48478  53.0532 273.2969 0001322  55.5810 304.5304 15.06395302 70359","FILE":"3537973","APOAPSIS":"548.143","SITE":"AFETR","DECAY_DATE":null,"PERIAPSIS":"546.312","MEAN_MOTION_DOT":"0.00000981","MEAN_MOTION":"15.06395302"},{"RA_OF_ASC_NODE":"272.7165","INCLINATION":"53.0538","OBJECT_NAME":"STARLINK-2755","MEAN_MOTION_DDOT":"0.0000000000000","OBJECT_TYPE":"PAYLOAD","CENTER_NAME":"EARTH","REV_AT_EPOCH":"7037","TIME_SYSTEM":"UTC","COUNTRY_CODE":"US","ELEMENT_SET_NO":"999","OBJECT_ID":"2021-040BD","EPHEMERIS_TYPE":"0","REF_FRAME":"TEME","SEMIMAJOR_AXIS":"6925.352","EPOCH":"2022-08-16T12:57:59.649408","MEAN_ANOMALY":"285.6158","BSTAR":"0.00012484000000","LAUNCH_DATE":"2021-05-09","ECCENTRICITY":"0.00012570","MEAN_MOTION":"15.06398978","MEAN_MOTION_DOT":"0.00001579","DECAY_DATE":null,"PERIAPSIS":"546.346","FILE":"3537973","APOAPSIS":"548.087","SITE":"AFETR","TLE_LINE2":"2 48479  53.0538 272.7165 0001257  74.4970 285.6158 15.06398978 70372","RCS_SIZE":"LARGE","GP_ID":"210336166","TLE_LINE1":"1 48479U 21040BD  22228.54027372  .00001579  00000-0  12484-3 0  9999","ARG_OF_PERICENTER":"74.4970","CLASSIFICATION_TYPE":"U","PERIOD":"95.592","NORAD_CAT_ID":"48479","MEAN_ELEMENT_THEORY":"SGP4"},{"BSTAR":"0.00003674800000","ECCENTRICITY":"0.00015250","LAUNCH_DATE":"2021-05-09","COUNTRY_CODE":"US","OBJECT_ID":"2021-040BE","ELEMENT_SET_NO":"999","SEMIMAJOR_AXIS":"6925.353","MEAN_ANOMALY":"291.7016","REF_FRAME":"TEME","EPOCH":"2022-08-16T11:40:59.265120","EPHEMERIS_TYPE":"0","MEAN_MOTION_DDOT":"0.0000000000000","OBJECT_NAME":"STARLINK-2690","TIME_SYSTEM":"UTC","OBJECT_TYPE":"PAYLOAD","REV_AT_EPOCH":"7022","CENTER_NAME":"EARTH","RA_OF_ASC_NODE":"282.9463","INCLINATION":"53.0546","PERIOD":"95.592","ARG_OF_PERICENTER":"68.4136","CLASSIFICATION_TYPE":"U","MEAN_ELEMENT_THEORY":"SGP4","NORAD_CAT_ID":"48480","RCS_SIZE":"LARGE","GP_ID":"210336916","TLE_LINE1":"1 48480U 21040BE  22228.48679705  .00000266  00000-0  36748-4 0  9999","SITE":"AFETR","APOAPSIS":"548.274","FILE":"3537973","TLE_LINE2":"2 48480  53.0546 282.9463 0001525  68.4136 291.7016 15.06398486 70221","MEAN_MOTION":"15.06398486","MEAN_MOTION_DOT":"0.00000266","PERIAPSIS":"546.162","DECAY_DATE":null},{"LAUNCH_DATE":"2021-05-09","ECCENTRICITY":"0.00013670","BSTAR":"0.00008109700000","EPHEMERIS_TYPE":"0","REF_FRAME":"TEME","SEMIMAJOR_AXIS":"6925.354","EPOCH":"2022-08-16T12:40:47.252352","MEAN_ANOMALY":"287.4056","OBJECT_ID":"2021-040BF","COUNTRY_CODE":"US","ELEMENT_SET_NO":"999","OBJECT_TYPE":"PAYLOAD","CENTER_NAME":"EARTH","REV_AT_EPOCH":"7022","TIME_SYSTEM":"UTC","OBJECT_NAME":"STARLINK-2706","MEAN_MOTION_DDOT":"0.0000000000000","INCLINATION":"53.0552","RA_OF_ASC_NODE":"283.0466","NORAD_CAT_ID":"48481","MEAN_ELEMENT_THEORY":"SGP4","ARG_OF_PERICENTER":"72.7082","CLASSIFICATION_TYPE":"U","PERIOD":"95.592","TLE_LINE1":"1 48481U 21040BF  22228.52832468  .00000927  00000-0  81097-4 0  9993","RCS_SIZE":"LARGE","GP_ID":"210337168","TLE_LINE2":"2 48481  53.0552 283.0466 0001367  72.7082 287.4056 15.06398284 70228","APOAPSIS":"548.166","FILE":"3537973","SITE":"AFETR","DECAY_DATE":null,"PERIAPSIS":"546.272","MEAN_MOTION":"15.06398284","MEAN_MOTION_DOT":"0.00000927"},{"OBJECT_NAME":"STARLINK-2525","MEAN_MOTION_DDOT":"0.0000000000000","CENTER_NAME":"EARTH","REV_AT_EPOCH":"7026","OBJECT_TYPE":"PAYLOAD","TIME_SYSTEM":"UTC","INCLINATION":"53.0543","RA_OF_ASC_NODE":"281.7275","BSTAR":"-0.00000069885000","LAUNCH_DATE":"2021-05-09","ECCENTRICITY":"0.00014970","COUNTRY_CODE":"US","ELEMENT_SET_NO":"999","OBJECT_ID":"2021-040BG","EPHEMERIS_TYPE":"0","SEMIMAJOR_AXIS":"6925.371","EPOCH":"2022-08-16T18:15:08.097696","REF_FRAME":"TEME","MEAN_ANOMALY":"282.1457","FILE":"3538178","APOAPSIS":"548.273","SITE":"AFETR","TLE_LINE2":"2 48482  53.0543 281.7275 0001497  77.9700 282.1457 15.06392661 70264","MEAN_MOTION_DOT":"-0.00000292","MEAN_MOTION":"15.06392661","DECAY_DATE":null,"PERIAPSIS":"546.199","CLASSIFICATION_TYPE":"U","ARG_OF_PERICENTER":"77.9700","PERIOD":"95.593","NORAD_CAT_ID":"48482","MEAN_ELEMENT_THEORY":"SGP4","GP_ID":"210366642","RCS_SIZE":"LARGE","TLE_LINE1":"1 48482U 21040BG  22228.76051039 -.00000292  00000-0 -69885-6 0  9997"},{"BSTAR":"-0.00005267100000","LAUNCH_DATE":"2021-05-09","ECCENTRICITY":"0.00014270","COUNTRY_CODE":"US","ELEMENT_SET_NO":"999","OBJECT_ID":"2021-040BH","EPHEMERIS_TYPE":"0","REF_FRAME":"TEME","SEMIMAJOR_AXIS":"6925.351","EPOCH":"2022-08-16T13:23:12.541920","MEAN_ANOMALY":"298.6856","OBJECT_NAME":"STARLINK-2531","MEAN_MOTION_DDOT":"0.0000000000000","CENTER_NAME":"EARTH","REV_AT_EPOCH":"7023","OBJECT_TYPE":"PAYLOAD","TIME_SYSTEM":"UTC","INCLINATION":"53.0544","RA_OF_ASC_NODE":"282.6350","CLASSIFICATION_TYPE":"U","ARG_OF_PERICENTER":"61.4277","PERIOD":"95.592","MEAN_ELEMENT_THEORY":"SGP4","NORAD_CAT_ID":"48483","GP_ID":"210336666","RCS_SIZE":"LARGE","TLE_LINE1":"1 48483U 21040BH  22228.55778405 -.00001066  00000-0 -52671-4 0  9991","FILE":"3537973","APOAPSIS":"548.204","SITE":"AFETR","TLE_LINE2":"2 48483  53.0544 282.6350 0001427  61.4277 298.6856 15.06399182 70237","MEAN_MOTION_DOT":"-0.00001066","MEAN_MOTION":"15.06399182","DECAY_DATE":null,"PERIAPSIS":"546.228"}];
